[{"OBJECT_NAME":"STARLINK-34954","OBJECT_ID":"2025-184C","EPOCH":"2026-03-09T16:13:06.629952","MEAN_MOTION":15.05646553,"ECCENTRICITY":9.353e-5,"INCLINATION":97.6022,"RA_OF_ASC_NODE":122.5664,"ARG_OF_PERICENTER":87.7211,"MEAN_ANOMALY":272.4123,"EPHEMERIS_TYPE":0,"CLASSIFICATION_TYPE":"U","NORAD_CAT_ID":65275,"ELEMENT_SET_NO":999,"REV_AT_EPOCH":3129,"BSTAR":-8.0689916e-5,"MEAN_MOTION_DOT":-1.225e-5,"MEAN_MOTION_DDOT":0},{"OBJECT_NAME":"CZ-4B DEB","OBJECT_ID":"2008-053M","EPOCH":"2026-03-05T07:18:48.921696","MEAN_MOTION":15.08195439,"ECCENTRICITY":0.0017401,"INCLINATION":97.8281,"RA_OF_ASC_NODE":90.6528,"ARG_OF_PERICENTER":258.7901,"MEAN_ANOMALY":101.1371,"EPHEMERIS_TYPE":0,"CLASSIFICATION_TYPE":"U","NORAD_CAT_ID":44593,"ELEMENT_SET_NO":999,"REV_AT_EPOCH":67199,"BSTAR":0.00019653,"MEAN_MOTION_DOT":2.982e-5,"MEAN_MOTION_DDOT":0}]
